[{"OBJECT_NAME":"ONEWEB-0371","OBJECT_ID":"2021-090U","EPOCH":"2025-10-23T15:23:43.635264","MEAN_MOTION":13.19724366,"ECCENTRICITY":0.000198,"INCLINATION":87.9252,"RA_OF_ASC_NODE":352.0268,"ARG_OF_PERICENTER":100.3564,"MEAN_ANOMALY":259.7792,"EPHEMERIS_TYPE":0,"CLASSIFICATION_TYPE":"U","NORAD_CAT_ID":49297,"ELEMENT_SET_NO":999,"REV_AT_EPOCH":19525,"BSTAR":-7.6423e-5,"MEAN_MOTION_DOT":-1.8e-7,"MEAN_MOTION_DDOT":0},{"OBJECT_NAME":"ONEWEB-0372","OBJECT_ID":"2021-090V","EPOCH":"2025-10-23T08:17:41.212896","MEAN_MOTION":13.20769714,"ECCENTRICITY":0.0001881,"INCLINATION":87.9198,"RA_OF_ASC_NODE":321.6788,"ARG_OF_PERICENTER":97.8472,"MEAN_ANOMALY":262.2875,"EPHEMERIS_TYPE":0,"CLASSIFICATION_TYPE":"U","NORAD_CAT_ID":49298,"ELEMENT_SET_NO":999,"REV_AT_EPOCH":19857,"BSTAR":1.2247e-5,"MEAN_MOTION_DOT":1.8e-7,"MEAN_MOTION_DDOT":0},{"OBJECT_NAME":"ONEWEB-0373","OBJECT_ID":"2021-090W","EPOCH":"2025-10-23T12:34:41.509056","MEAN_MOTION":13.20770013,"ECCENTRICITY":0.000187,"INCLINATION":87.9198,"RA_OF_ASC_NODE":321.6567,"ARG_OF_PERICENTER":91.421,"MEAN_ANOMALY":268.7137,"EPHEMERIS_TYPE":0,"CLASSIFICATION_TYPE":"U","NORAD_CAT_ID":49299,"ELEMENT_SET_NO":999,"REV_AT_EPOCH":19978,"BSTAR":1.6088e-5,"MEAN_MOTION_DOT":2.0e-7,"MEAN_MOTION_DDOT":0},{"OBJECT_NAME":"ONEWEB-0374","OBJECT_ID":"2021-090X","EPOCH":"2025-10-23T13:04:17.027328","MEAN_MOTION":13.1450521,"ECCENTRICITY":0.0001307,"INCLINATION":87.9024,"RA_OF_ASC_NODE":336.8392,"ARG_OF_PERICENTER":95.483,"MEAN_ANOMALY":264.6449,"EPHEMERIS_TYPE":0,"CLASSIFICATION_TYPE":"U","NORAD_CAT_ID":49300,"ELEMENT_SET_NO":999,"REV_AT_EPOCH":19647,"BSTAR":-0.00012262,"MEAN_MOTION_DOT":-3.3e-7,"MEAN_MOTION_DDOT":0},{"OBJECT_NAME":"ONEWEB-0375","OBJECT_ID":"2021-090Y","EPOCH":"2025-10-23T12:16:30.758304","MEAN_MOTION":13.20770221,"ECCENTRICITY":0.0001541,"INCLINATION":87.9199,"RA_OF_ASC_NODE":321.6391,"ARG_OF_PERICENTER":77.5904,"MEAN_ANOMALY":282.5402,"EPHEMERIS_TYPE":0,"CLASSIFICATION_TYPE":"U","NORAD_CAT_ID":49301,"ELEMENT_SET_NO":999,"REV_AT_EPOCH":19928,"BSTAR":0.00010941,"MEAN_MOTION_DOT":5.7e-7,"MEAN_MOTION_DDOT":0},{"OBJECT_NAME":"ONEWEB-0376","OBJECT_ID":"2021-090Z","EPOCH":"2025-10-23T15:21:25.911072","MEAN_MOTION":13.19734688,"ECCENTRICITY":0.0001972,"INCLINATION":87.9253,"RA_OF_ASC_NODE":352.0109,"ARG_OF_PERICENTER":106.5548,"MEAN_ANOMALY":253.5802,"EPHEMERIS_TYPE":0,"CLASSIFICATION_TYPE":"U","NORAD_CAT_ID":49302,"ELEMENT_SET_NO":999,"REV_AT_EPOCH":19525,"BSTAR":0.003104,"MEAN_MOTION_DOT":1.256e-5,"MEAN_MOTION_DDOT":0},{"OBJECT_NAME":"ONEWEB-0377","OBJECT_ID":"2021-090AA","EPOCH":"2025-10-23T10:07:10.629120","MEAN_MOTION":13.20771405,"ECCENTRICITY":0.0001964,"INCLINATION":87.9205,"RA_OF_ASC_NODE":321.6538,"ARG_OF_PERICENTER":87.8357,"MEAN_ANOMALY":272.3001,"EPHEMERIS_TYPE":0,"CLASSIFICATION_TYPE":"U","NORAD_CAT_ID":49303,"ELEMENT_SET_NO":999,"REV_AT_EPOCH":19926,"BSTAR":0.00028014,"MEAN_MOTION_DOT":1.27e-6,"MEAN_MOTION_DDOT":0},{"OBJECT_NAME":"ONEWEB-0378","OBJECT_ID":"2021-090AB","EPOCH":"2025-10-23T10:38:59.511840","MEAN_MOTION":13.20770985,"ECCENTRICITY":0.0001743,"INCLINATION":87.9207,"RA_OF_ASC_NODE":321.6648,"ARG_OF_PERICENTER":91.6945,"MEAN_ANOMALY":268.4388,"EPHEMERIS_TYPE":0,"CLASSIFICATION_TYPE":"U","NORAD_CAT_ID":49304,"ELEMENT_SET_NO":999,"REV_AT_EPOCH":19853,"BSTAR":-0.00012164,"MEAN_MOTION_DOT":-3.6e-7,"MEAN_MOTION_DDOT":0},{"OBJECT_NAME":"ONEWEB-0379","OBJECT_ID":"2021-090AC","EPOCH":"2025-10-23T12:57:25.900704","MEAN_MOTION":13.14504055,"ECCENTRICITY":0.0001758,"INCLINATION":87.9021,"RA_OF_ASC_NODE":336.8482,"ARG_OF_PERICENTER":99.6005,"MEAN_ANOMALY":260.5323,"EPHEMERIS_TYPE":0,"CLASSIFICATION_TYPE":"U","NORAD_CAT_ID":49305,"ELEMENT_SET_NO":999,"REV_AT_EPOCH":19647,"BSTAR":-0.00029456,"MEAN_MOTION_DOT":-9.6e-7,"MEAN_MOTION_DDOT":0},{"OBJECT_NAME":"ONEWEB-0380","OBJECT_ID":"2021-090AD","EPOCH":"2025-10-23T15:16:54.100128","MEAN_MOTION":13.19725021,"ECCENTRICITY":0.0001806,"INCLINATION":87.9252,"RA_OF_ASC_NODE":352.0371,"ARG_OF_PERICENTER":92.4222,"MEAN_ANOMALY":267.7118,"EPHEMERIS_TYPE":0,"CLASSIFICATION_TYPE":"U","NORAD_CAT_ID":49306,"ELEMENT_SET_NO":999,"REV_AT_EPOCH":19522,"BSTAR":9.9564e-5,"MEAN_MOTION_DOT":5.3e-7,"MEAN_MOTION_DDOT":0},{"OBJECT_NAME":"ONEWEB-0381","OBJECT_ID":"2021-090AE","EPOCH":"2025-10-23T11:51:31.573152","MEAN_MOTION":13.20770747,"ECCENTRICITY":0.0001698,"INCLINATION":87.9192,"RA_OF_ASC_NODE":321.6455,"ARG_OF_PERICENTER":86.4424,"MEAN_ANOMALY":273.6904,"EPHEMERIS_TYPE":0,"CLASSIFICATION_TYPE":"U","NORAD_CAT_ID":49307,"ELEMENT_SET_NO":999,"REV_AT_EPOCH":19858,"BSTAR":0.0001755,"MEAN_MOTION_DOT":8.4e-7,"MEAN_MOTION_DDOT":0},{"OBJECT_NAME":"ONEWEB-0382","OBJECT_ID":"2021-090AF","EPOCH":"2025-10-23T11:33:20.176992","MEAN_MOTION":13.20770202,"ECCENTRICITY":0.0001578,"INCLINATION":87.9204,"RA_OF_ASC_NODE":321.6403,"ARG_OF_PERICENTER":90.4989,"MEAN_ANOMALY":269.6325,"EPHEMERIS_TYPE":0,"CLASSIFICATION_TYPE":"U","NORAD_CAT_ID":49308,"ELEMENT_SET_NO":999,"REV_AT_EPOCH":19857,"BSTAR":0.00018089,"MEAN_MOTION_DOT":8.7e-7,"MEAN_MOTION_DDOT":0},{"OBJECT_NAME":"ONEWEB-0383","OBJECT_ID":"2021-090AG","EPOCH":"2025-10-23T12:48:19.681632","MEAN_MOTION":13.14503582,"ECCENTRICITY":0.0001669,"INCLINATION":87.9024,"RA_OF_ASC_NODE":336.8321,"ARG_OF_PERICENTER":98.3476,"MEAN_ANOMALY":261.7843,"EPHEMERIS_TYPE":0,"CLASSIFICATION_TYPE":"U","NORAD_CAT_ID":49309,"ELEMENT_SET_NO":999,"REV_AT_EPOCH":19650,"BSTAR":-0.00056794,"MEAN_MOTION_DOT":-1.98e-6,"MEAN_MOTION_DDOT":0},{"OBJECT_NAME":"ONEWEB-0384","OBJECT_ID":"2021-090AH","EPOCH":"2025-10-23T11:25:15.619008","MEAN_MOTION":13.20796035,"ECCENTRICITY":0.0001306,"INCLINATION":87.9216,"RA_OF_ASC_NODE":321.6727,"ARG_OF_PERICENTER":92.8907,"MEAN_ANOMALY":267.2376,"EPHEMERIS_TYPE":0,"CLASSIFICATION_TYPE":"U","NORAD_CAT_ID":49310,"ELEMENT_SET_NO":999,"REV_AT_EPOCH":19858,"BSTAR":3.478e-5,"MEAN_MOTION_DOT":2.7e-7,"MEAN_MOTION_DDOT":0},{"OBJECT_NAME":"ONEWEB-0385","OBJECT_ID":"2021-090AJ","EPOCH":"2025-10-23T13:11:04.302240","MEAN_MOTION":13.20771584,"ECCENTRICITY":0.0001711,"INCLINATION":87.9193,"RA_OF_ASC_NODE":321.6363,"ARG_OF_PERICENTER":92.7491,"MEAN_ANOMALY":267.3838,"EPHEMERIS_TYPE":0,"CLASSIFICATION_TYPE":"U","NORAD_CAT_ID":49311,"ELEMENT_SET_NO":999,"REV_AT_EPOCH":19856,"BSTAR":8.327e-5,"MEAN_MOTION_DOT":4.7e-7,"MEAN_MOTION_DDOT":0},{"OBJECT_NAME":"ONEWEB-0386","OBJECT_ID":"2021-090AK","EPOCH":"2025-10-23T15:25:09.153984","MEAN_MOTION":13.20770849,"ECCENTRICITY":0.0001566,"INCLINATION":87.9205,"RA_OF_ASC_NODE":321.5973,"ARG_OF_PERICENTER":92.0235,"MEAN_ANOMALY":268.1078,"EPHEMERIS_TYPE":0,"CLASSIFICATION_TYPE":"U","NORAD_CAT_ID":49312,"ELEMENT_SET_NO":999,"REV_AT_EPOCH":19859,"BSTAR":0.00031588,"MEAN_MOTION_DOT":1.41e-6,"MEAN_MOTION_DDOT":0},{"OBJECT_NAME":"ONEWEB-0387","OBJECT_ID":"2021-090AL","EPOCH":"2025-10-23T13:13:19.665984","MEAN_MOTION":13.20769897,"ECCENTRICITY":0.000183,"INCLINATION":87.9193,"RA_OF_ASC_NODE":321.6655,"ARG_OF_PERICENTER":84.3757,"MEAN_ANOMALY":275.7585,"EPHEMERIS_TYPE":0,"CLASSIFICATION_TYPE":"U","NORAD_CAT_ID":49313,"ELEMENT_SET_NO":999,"REV_AT_EPOCH":19858,"BSTAR":4.1767e-5,"MEAN_MOTION_DOT":3.0e-7,"MEAN_MOTION_DDOT":0},{"OBJECT_NAME":"ONEWEB-0388","OBJECT_ID":"2021-090AM","EPOCH":"2025-10-23T13:20:54.009024","MEAN_MOTION":13.1972472,"ECCENTRICITY":0.0001732,"INCLINATION":87.9241,"RA_OF_ASC_NODE":352.0581,"ARG_OF_PERICENTER":97.905,"MEAN_ANOMALY":262.2279,"EPHEMERIS_TYPE":0,"CLASSIFICATION_TYPE":"U","NORAD_CAT_ID":49314,"ELEMENT_SET_NO":999,"REV_AT_EPOCH":19520,"BSTAR":-7.8743e-6,"MEAN_MOTION_DOT":1.0e-7,"MEAN_MOTION_DDOT":0},{"OBJECT_NAME":"ONEWEB-0389","OBJECT_ID":"2021-132A","EPOCH":"2025-10-23T13:57:31.928256","MEAN_MOTION":13.17648548,"ECCENTRICITY":0.0001496,"INCLINATION":87.912,"RA_OF_ASC_NODE":52.9191,"ARG_OF_PERICENTER":89.2041,"MEAN_ANOMALY":270.9262,"EPHEMERIS_TYPE":0,"CLASSIFICATION_TYPE":"U","NORAD_CAT_ID":50469,"ELEMENT_SET_NO":999,"REV_AT_EPOCH":18692,"BSTAR":2.2464e-6,"MEAN_MOTION_DOT":1.4e-7,"MEAN_MOTION_DDOT":0},{"OBJECT_NAME":"ONEWEB-0390","OBJECT_ID":"2021-132B","EPOCH":"2025-10-23T08:31:54.380064","MEAN_MOTION":13.17648083,"ECCENTRICITY":0.0001946,"INCLINATION":87.9113,"RA_OF_ASC_NODE":52.9697,"ARG_OF_PERICENTER":95.3361,"MEAN_ANOMALY":264.7993,"EPHEMERIS_TYPE":0,"CLASSIFICATION_TYPE":"U","NORAD_CAT_ID":50470,"ELEMENT_SET_NO":999,"REV_AT_EPOCH":18689,"BSTAR":0.00019476,"MEAN_MOTION_DOT":8.8e-7,"MEAN_MOTION_DDOT":0},{"OBJECT_NAME":"ONEWEB-0391","OBJECT_ID":"2021-132C","EPOCH":"2025-10-23T14:02:23.643168","MEAN_MOTION":13.17649732,"ECCENTRICITY":0.0001692,"INCLINATION":87.9109,"RA_OF_ASC_NODE":52.9345,"ARG_OF_PERICENTER":70.5567,"MEAN_ANOMALY":289.5747,"EPHEMERIS_TYPE":0,"CLASSIFICATION_TYPE":"U","NORAD_CAT_ID":50471,"ELEMENT_SET_NO":999,"REV_AT_EPOCH":18692,"BSTAR":3.0984e-5,"MEAN_MOTION_DOT":2.5e-7,"MEAN_MOTION_DDOT":0},{"OBJECT_NAME":"ONEWEB-0392","OBJECT_ID":"2021-132D","EPOCH":"2025-10-23T14:46:07.425408","MEAN_MOTION":13.17649659,"ECCENTRICITY":0.0001549,"INCLINATION":87.9119,"RA_OF_ASC_NODE":52.8767,"ARG_OF_PERICENTER":88.1684,"MEAN_ANOMALY":271.9625,"EPHEMERIS_TYPE":0,"CLASSIFICATION_TYPE":"U","NORAD_CAT_ID":50472,"ELEMENT_SET_NO":999,"REV_AT_EPOCH":18696,"BSTAR":0.00012674,"MEAN_MOTION_DOT":6.2e-7,"MEAN_MOTION_DDOT":0},{"OBJECT_NAME":"ONEWEB-0393","OBJECT_ID":"2021-132E","EPOCH":"2025-10-23T14:07:27.000480","MEAN_MOTION":13.17650889,"ECCENTRICITY":0.00016243,"INCLINATION":87.9118,"RA_OF_ASC_NODE":52.9027,"ARG_OF_PERICENTER":94.5541,"MEAN_ANOMALY":265.5776,"EPHEMERIS_TYPE":0,"CLASSIFICATION_TYPE":"U","NORAD_CAT_ID":50473,"ELEMENT_SET_NO":999,"REV_AT_EPOCH":18695,"BSTAR":0.00013759698,"MEAN_MOTION_DOT":6.6e-7,"MEAN_MOTION_DDOT":0},{"OBJECT_NAME":"ONEWEB-0394","OBJECT_ID":"2021-132F","EPOCH":"2025-10-23T16:00:00.305280","MEAN_MOTION":13.18685376,"ECCENTRICITY":0.0001679,"INCLINATION":87.9229,"RA_OF_ASC_NODE":22.4099,"ARG_OF_PERICENTER":98.2946,"MEAN_ANOMALY":261.8376,"EPHEMERIS_TYPE":0,"CLASSIFICATION_TYPE":"U","NORAD_CAT_ID":50474,"ELEMENT_SET_NO":999,"REV_AT_EPOCH":19042,"BSTAR":0.00013417,"MEAN_MOTION_DOT":6.6e-7,"MEAN_MOTION_DDOT":0}]
